NOAA 1 [-]              
1 04793U 70106A   22301.80547644 -.00000035  00000+0  55377-4 0  9992
2 04793 101.5412   2.1781 0031787  63.2794  54.2884 12.54008453374305
NOAA 2 (ITOS-D) [-]     
1 06235U 72082A   22301.86217603 -.00000037  00000+0  59155-4 0  9995
2 06235 101.9695 284.9965 0003880 176.2549 241.7663 12.53153127288686
NOAA 3 [-]              
1 06920U 73086A   22301.79300418 -.00000042  00000+0  29597-4 0  9993
2 06920 102.2239 283.7932 0006787  44.7256  28.4088 12.40349635217320
NOAA 4 [-]              
1 07529U 74089A   22301.84121337 -.00000039  00000+0  43552-4 0  9993
2 07529 101.9308 281.9427 0008695 208.0836 212.4283 12.53161722193257
NOAA 5 [-]              
1 09057U 76077A   22301.91774657 -.00000027  00000+0  14257-3 0  9993
2 09057 102.1181 268.5632 0009507 254.6052 167.3647 12.37775689 90473
TIROS N [-]             
1 11060U 78096A   22302.16395532  .00000147  00000+0  91889-4 0  9991
2 11060  98.6194 352.2612 0011630 116.6644 243.5724 14.18429683490801
NOAA 6 [-]              
1 11416U 79057A   22301.76217905  .00000229  00000+0  98328-4 0  9992
2 11416  98.6632 312.8270 0009581 220.9683 139.0782 14.33823542260626
NOAA 7 [-]              
1 12553U 81059A   22302.07683029  .00000049  00000+0  46905-4 0  9993
2 12553  98.9832 348.0522 0012520  95.8689 264.3913 14.17351080136947
NOAA 8 [-]              
1 13923U 83022A   22301.96862879  .00000122  00000+0  66098-4 0  9993
2 13923  98.6985 292.0658 0015074 175.0606 185.0726 14.28847571 61732
NOAA 9 [-]              
1 15427U 84123A   22301.90752177  .00000128  00000+0  87951-4 0  9997
2 15427  99.0630 276.4920 0015317 144.1058 270.0911 14.16237669955732
NOAA 10 [-]             
1 16969U 86073A   22301.84153351  .00000119  00000+0  65303-4 0  9994
2 16969  98.5821 285.6258 0011140 283.6160 139.0524 14.28236744879879
NOAA 11 [-]             
1 19531U 88089A   22301.81546852  .00000033  00000+0  37735-4 0  9993
2 19531  98.4390 283.6551 0011645 149.3331 210.8527 14.15330211759686
NOAA 12 [-]             
1 21263U 91032A   22301.80748152  .00000074  00000+0  48784-4 0  9997
2 21263  98.5217 297.9373 0012776 312.6991  47.3112 14.26022337635734
NOAA 13 [-]             
1 22739U 93050A   22301.93916837  .00000113  00000+0  83003-4 0  9996
2 22739  98.5221 275.1834 0008959 327.6653  32.3970 14.12874765506140
NOAA 14 [-]             
1 23455U 94089A   22301.70821170  .00000022  00000+0  32742-4 0  9998
2 23455  98.4403 321.1621 0008493 305.5373  54.5008 14.14215900435545
NOAA 15 [B]             
1 25338U 98030A   22302.28139520  .00000141  00000+0  77185-4 0  9997
2 25338  98.6332 330.0019 0009290 266.8790  93.1327 14.26188234272340
NOAA 16 [-]             
1 26536U 00055A   22301.70255936  .00000066  00000+0  57354-4 0  9996
2 26536  98.6203 355.9058 0011244 141.0391 219.1594 14.13353448436176
NOAA 17 [-]             
1 27453U 02032A   22301.82880446  .00000133  00000+0  75492-4 0  9993
2 27453  98.6856 245.6056 0010777 242.1819 117.8268 14.25157896 57858
NOAA 18 [B]             
1 28654U 05018A   22302.06051353  .00000230  00000+0  14772-3 0  9999
2 28654  98.9368  12.3118 0013450 316.5575  43.4536 14.12797391898937
NOAA 19 [+]             
1 33591U 09005A   22302.28954905  .00000163  00000+0  11279-3 0  9998
2 33591  99.1344 339.1574 0014134 168.6680 191.4812 14.12629049707348
SUOMI NPP [+]           
1 37849U 11061A   22302.06401417  .00000088  00000+0  62568-4 0  9998
2 37849  98.7431 238.8117 0000981  84.4870  44.0455 14.19555285570148
NOAA 20 [+]             
1 43013U 17073A   22302.28484643  .00000099  00000+0  67717-4 0  9996
2 43013  98.7270 238.7931 0001525  68.8176 291.3163 14.19554190256218
